[{"OBJECT_NAME":"STARLINK-31331","OBJECT_ID":"2024-027R","EPOCH":"2026-03-09T22:10:12.903744","MEAN_MOTION":15.30185758,"ECCENTRICITY":0.00012453,"INCLINATION":53.1622,"RA_OF_ASC_NODE":308.5656,"ARG_OF_PERICENTER":109.4082,"MEAN_ANOMALY":250.7053,"EPHEMERIS_TYPE":0,"CLASSIFICATION_TYPE":"U","NORAD_CAT_ID":58946,"ELEMENT_SET_NO":999,"REV_AT_EPOCH":11736,"BSTAR":2.8055981e-5,"MEAN_MOTION_DOT":4.72e-6,"MEAN_MOTION_DDOT":0},{"OBJECT_NAME":"LIZZIESAT-2 (LS-2)","OBJECT_ID":"2024-247G","EPOCH":"2026-03-09T11:47:37.199328","MEAN_MOTION":15.28222796,"ECCENTRICITY":0.00040927,"INCLINATION":44.9909,"RA_OF_ASC_NODE":117.0823,"ARG_OF_PERICENTER":327.5136,"MEAN_ANOMALY":32.5495,"EPHEMERIS_TYPE":0,"CLASSIFICATION_TYPE":"U","NORAD_CAT_ID":62383,"ELEMENT_SET_NO":999,"REV_AT_EPOCH":6771,"BSTAR":0.00034516624,"MEAN_MOTION_DOT":9.388e-5,"MEAN_MOTION_DDOT":0}]
